OBJECT_NAME,OBJECT_ID,EPOCH,MEAN_MOTION,ECCENTRICITY,INCLINATION,RA_OF_ASC_NODE,ARG_OF_PERICENTER,MEAN_ANOMALY,EPHEMERIS_TYPE,CLASSIFICATION_TYPE,NORAD_CAT_ID,ELEMENT_SET_NO,REV_AT_EPOCH,BSTAR,MEAN_MOTION_DOT,MEAN_MOTION_DDOT
BEIDOU-3 M28 (C50),2023-207A,2026-06-11T09:25:31.015776,1.86229663,.0003416,55.7478,62.4986,345.3912,14.6217,0,U,58654,999,1673,0,-.56E-6,0
BEIDOU-3 M26 (C48),2023-207B,2026-06-10T02:47:28.483296,1.86229681,.0003349,55.7488,62.5282,318.7202,41.2779,0,U,58655,999,1669,0,-.52E-6,0
GSAT0225 (GALILEO 29),2024-079A,2026-06-09T11:34:01.814016,1.70474016,.00017346,55.1155,101.2960,292.0981,244.7042,0,U,59598,999,1318,0,.21E-6,0
GSAT0227 (GALILEO 30),2024-079C,2026-06-08T04:53:54.670272,1.70474042,.00019208,55.1096,101.3297,44.5115,315.4782,0,U,59600,999,1321,0,.25E-6,0
GSAT0232 (GALILEO 32),2024-167A,2026-06-10T06:34:59.474208,1.70474330,.00060374,55.1868,221.5039,224.8875,181.2039,0,U,61182,999,1076,0,.51E-6,0
GSAT0226 (GALILEO 31),2024-167B,2026-06-11T06:44:08.955744,1.70474227,.0002833,55.1854,221.4835,223.3886,171.6670,0,U,61183,999,1075,0,.56E-6,0
BEIDOU-3 M25 (C47),2024-168B,2026-06-10T23:50:19.575168,1.86229941,.0003017,54.4795,302.4582,302.5264,42.7761,0,U,61186,999,1166,0,-.66E-6,0
BEIDOU-3 M27 (C49),2024-168C,2026-06-11T14:58:36.861600,1.86229973,.0001629,54.4743,302.4192,49.8282,133.3892,0,U,61187,999,915,0,-.67E-6,0
GPS BIII-7  (PRN 01),2024-242A,2026-06-10T20:45:32.983776,2.00571298,.00173081,54.8505,334.4380,3.9284,359.9607,0,U,62339,999,1113,0,-.65E-6,0
QZS-6 (QZSS/PRN 200),2025-023A,2026-06-11T17:19:13.126080,1.00272357,.0001798,0.0398,62.6171,25.7107,162.0601,0,U,62876,999,489,0,-.217E-5,0
COSMOS 2584 (704K),2025-042A,2026-06-08T05:23:06.412992,2.13103875,.00058283,65.0792,73.1067,228.4476,131.5246,0,U,63130,999,985,0,-.15E-6,0
GPS BIII-8  (PRN 21),2025-116A,2026-06-04T08:47:30.944832,2.00577081,.00084526,55.2259,31.6468,337.8257,196.1658,0,U,64202,999,761,0,-.73E-6,0
COSMOS 2596 (708K),2025-206B,2026-06-10T09:21:23.669856,2.13100656,.00110879,64.6376,315.2225,312.7926,24.8898,0,U,65590,999,576,0,-.39E-6,0
GSAT0233 (GALILEO 33),2025-302A,2026-06-06T15:54:07.553088,1.70474269,.0001324,54.3305,102.4316,236.8649,300.4651,0,U,67160,999,294,0,.23E-6,0
GSAT0234 (GALILEO 34),2025-302C,2026-06-11T15:40:30.725760,1.70474004,.0003065,54.3333,102.2882,306.8400,233.4168,0,U,67162,999,308,0,.8E-7,0
GPS BIII-9  (PRN 20),2026-017A,2026-06-08T05:21:26.887104,2.00571164,.00217737,55.0831,89.1152,257.0982,102.6538,0,U,67588,999,43143,0,.5E-7,0
GPS BIII-10 (PRN 13),2026-087A,2026-06-07T10:32:17.680992,2.00569573,.00209312,54.9638,208.1735,107.2972,251.8874,0,U,68791,999,63,0,.57E-6,0
